IRIDIUM 33 DEB          
1 36023U 97051VE  23258.19543731  .00059606  00000+0  67792-2 0  9997
2 36023  86.3300 339.3837 0012962  16.4898 343.6745 14.85882842744094
IRIDIUM 33 DEB          
1 36028U 97051VK  23258.48289660  .00006370  00000+0  12563-2 0  9998
2 36028  86.3362 319.8427 0030423  34.7920 325.5272 14.62061404750376
IRIDIUM 33 DEB          
1 36080U 97051VM  23246.09486776  .00002507  00000+0  78695-3 0  9994
2 36080  86.3275   8.1580 0019650  41.0128 319.2545 14.40090859354189
IRIDIUM 33 DEB          
1 36083U 97051VQ  23249.68209439  .00002056  00000+0  67515-3 0  9992
2 36083  86.3491  28.8105 0030699  75.5831 284.8770 14.37613584735297
IRIDIUM 33 DEB          
1 36390U 97051VU  23256.89281177  .00006976  00000+0  15598-2 0  9991
2 36390  86.2996 309.5670 0046423  98.8828 261.7640 14.55942765763184
IRIDIUM 33 DEB          
1 36483U 97051VZ  23257.67542257  .00003032  00000+0  96396-3 0  9996
2 36483  86.3827  41.5651 0008146 325.4202  34.6466 14.39634158533216
IRIDIUM 33 DEB          
1 36485U 97051WB  23256.91479090  .00037359  00000+0  89664-2 0  9996
2 36485  86.4234 133.1172 0112185   8.1795 352.1203 14.49440417718315
IRIDIUM 33 DEB          
1 36487U 97051WD  23253.99200494  .00013349  00000+0  48949-2 0  9997
2 36487  86.3658 146.8601 0138059  75.8831 285.7658 14.27535408576996
IRIDIUM 33 DEB          
1 36490U 97051WG  23258.74245976  .00006747  00000+0  16285-2 0  9995
2 36490  86.3804  12.0437 0000790  57.1795 302.9487 14.53061780745026
IRIDIUM 33 DEB          
1 36492U 97051WJ  23258.30014572  .00062934  00000+0  72429-2 0  9997
2 36492  86.4164  18.8197 0008220 224.8676 135.1884 14.85412973753656
IRIDIUM 33 DEB          
1 36493U 97051WK  23256.06444047  .00007644  00000+0  19946-2 0  9995
2 36493  86.3675  11.5866 0013350 235.8801 124.1137 14.49329965625541
IRIDIUM 33 DEB          
1 36497U 97051WP  23254.81281455  .00003771  00000+0  10987-2 0  9995
2 36497  86.1562 271.5600 0066434   0.4567 359.6681 14.42674997537102
IRIDIUM 33 DEB          
1 36566U 97051WV  23257.49769924  .00035076  00000+0  10415-1 0  9999
2 36566  86.4280 169.6281 0132144 357.2954   2.7513 14.38095484727728
IRIDIUM 33 DEB          
1 37136U 97051XG  23256.51072827  .00002354  00000+0  10052-2 0  9995
2 37136  86.1791 336.7046 0085370 101.8990 259.1787 14.22686438741177
IRIDIUM 33 DEB          
1 37548U 97051XH  23256.68220583  .00005652  00000+0  17921-2 0  9990
2 37548  86.3572  36.9910 0029193  43.7899 316.5607 14.39670877536714
IRIDIUM 33 DEB          
1 37550U 97051XK  23256.10030231  .00008332  00000+0  21365-2 0  9994
2 37550  86.3866  22.5205 0003464  69.6616 290.4961 14.50214607743562
