[{"OBJECT_NAME":"IRIDIUM 33 DEB","OBJECT_ID":"1997-051VE","EPOCH":"2023-09-15T04:41:25.783584","MEAN_MOTION":14.85882842,"ECCENTRICITY":0.0012962,"INCLINATION":86.33,"RA_OF_ASC_NODE":339.3837,"ARG_OF_PERICENTER":16.4898,"MEAN_ANOMALY":343.6745,"EPHEMERIS_TYPE":0,"CLASSIFICATION_TYPE":"U","NORAD_CAT_ID":36023,"ELEMENT_SET_NO":999,"REV_AT_EPOCH":74409,"BSTAR":0.0067792,"MEAN_MOTION_DOT":0.00059606,"MEAN_MOTION_DDOT":0},{"OBJECT_NAME":"IRIDIUM 33 DEB","OBJECT_ID":"1997-051VK","EPOCH":"2023-09-15T11:35:22.266240","MEAN_MOTION":14.62061404,"ECCENTRICITY":0.0030423,"INCLINATION":86.3362,"RA_OF_ASC_NODE":319.8427,"ARG_OF_PERICENTER":34.792,"MEAN_ANOMALY":325.5272,"EPHEMERIS_TYPE":0,"CLASSIFICATION_TYPE":"U","NORAD_CAT_ID":36028,"ELEMENT_SET_NO":999,"REV_AT_EPOCH":75037,"BSTAR":0.0012563,"MEAN_MOTION_DOT":6.37e-5,"MEAN_MOTION_DDOT":0},{"OBJECT_NAME":"IRIDIUM 33 DEB","OBJECT_ID":"1997-051VM","EPOCH":"2023-09-03T02:16:36.574464","MEAN_MOTION":14.40090859,"ECCENTRICITY":0.001965,"INCLINATION":86.3275,"RA_OF_ASC_NODE":8.158,"ARG_OF_PERICENTER":41.0128,"MEAN_ANOMALY":319.2545,"EPHEMERIS_TYPE":0,"CLASSIFICATION_TYPE":"U","NORAD_CAT_ID":36080,"ELEMENT_SET_NO":999,"REV_AT_EPOCH":35418,"BSTAR":0.00078695,"MEAN_MOTION_DOT":2.507e-5,"MEAN_MOTION_DDOT":0},{"OBJECT_NAME":"IRIDIUM 33 DEB","OBJECT_ID":"1997-051VQ","EPOCH":"2023-09-06T16:22:12.955296","MEAN_MOTION":14.37613584,"ECCENTRICITY":0.0030699,"INCLINATION":86.3491,"RA_OF_ASC_NODE":28.8105,"ARG_OF_PERICENTER":75.5831,"MEAN_ANOMALY":284.877,"EPHEMERIS_TYPE":0,"CLASSIFICATION_TYPE":"U","NORAD_CAT_ID":36083,"ELEMENT_SET_NO":999,"REV_AT_EPOCH":73529,"BSTAR":0.00067515,"MEAN_MOTION_DOT":2.056e-5,"MEAN_MOTION_DDOT":0},{"OBJECT_NAME":"IRIDIUM 33 DEB","OBJECT_ID":"1997-051VU","EPOCH":"2023-09-13T21:25:38.936928","MEAN_MOTION":14.55942765,"ECCENTRICITY":0.0046423,"INCLINATION":86.2996,"RA_OF_ASC_NODE":309.567,"ARG_OF_PERICENTER":98.8828,"MEAN_ANOMALY":261.764,"EPHEMERIS_TYPE":0,"CLASSIFICATION_TYPE":"U","NORAD_CAT_ID":36390,"ELEMENT_SET_NO":999,"REV_AT_EPOCH":76318,"BSTAR":0.0015598,"MEAN_MOTION_DOT":6.976e-5,"MEAN_MOTION_DDOT":0},{"OBJECT_NAME":"IRIDIUM 33 DEB","OBJECT_ID":"1997-051VZ","EPOCH":"2023-09-14T16:12:36.510048","MEAN_MOTION":14.39634158,"ECCENTRICITY":0.0008146,"INCLINATION":86.3827,"RA_OF_ASC_NODE":41.5651,"ARG_OF_PERICENTER":325.4202,"MEAN_ANOMALY":34.6466,"EPHEMERIS_TYPE":0,"CLASSIFICATION_TYPE":"U","NORAD_CAT_ID":36483,"ELEMENT_SET_NO":999,"REV_AT_EPOCH":53321,"BSTAR":0.00096396,"MEAN_MOTION_DOT":3.032e-5,"MEAN_MOTION_DDOT":0},{"OBJECT_NAME":"IRIDIUM 33 DEB","OBJECT_ID":"1997-051WB","EPOCH":"2023-09-13T21:57:17.933760","MEAN_MOTION":14.49440417,"ECCENTRICITY":0.0112185,"INCLINATION":86.4234,"RA_OF_ASC_NODE":133.1172,"ARG_OF_PERICENTER":8.1795,"MEAN_ANOMALY":352.1203,"EPHEMERIS_TYPE":0,"CLASSIFICATION_TYPE":"U","NORAD_CAT_ID":36485,"ELEMENT_SET_NO":999,"REV_AT_EPOCH":71831,"BSTAR":0.0089664,"MEAN_MOTION_DOT":0.00037359,"MEAN_MOTION_DDOT":0},{"OBJECT_NAME":"IRIDIUM 33 DEB","OBJECT_ID":"1997-051WD","EPOCH":"2023-09-10T23:48:29.226816","MEAN_MOTION":14.27535408,"ECCENTRICITY":0.0138059,"INCLINATION":86.3658,"RA_OF_ASC_NODE":146.8601,"ARG_OF_PERICENTER":75.8831,"MEAN_ANOMALY":285.7658,"EPHEMERIS_TYPE":0,"CLASSIFICATION_TYPE":"U","NORAD_CAT_ID":36487,"ELEMENT_SET_NO":999,"REV_AT_EPOCH":57699,"BSTAR":0.0048949,"MEAN_MOTION_DOT":0.00013349,"MEAN_MOTION_DDOT":0},{"OBJECT_NAME":"IRIDIUM 33 DEB","OBJECT_ID":"1997-051WG","EPOCH":"2023-09-15T17:49:08.523264","MEAN_MOTION":14.5306178,"ECCENTRICITY":7.9e-5,"INCLINATION":86.3804,"RA_OF_ASC_NODE":12.0437,"ARG_OF_PERICENTER":57.1795,"MEAN_ANOMALY":302.9487,"EPHEMERIS_TYPE":0,"CLASSIFICATION_TYPE":"U","NORAD_CAT_ID":36490,"ELEMENT_SET_NO":999,"REV_AT_EPOCH":74502,"BSTAR":0.0016285,"MEAN_MOTION_DOT":6.747e-5,"MEAN_MOTION_DDOT":0},{"OBJECT_NAME":"IRIDIUM 33 DEB","OBJECT_ID":"1997-051WJ","EPOCH":"2023-09-15T07:12:12.590208","MEAN_MOTION":14.85412973,"ECCENTRICITY":0.000822,"INCLINATION":86.4164,"RA_OF_ASC_NODE":18.8197,"ARG_OF_PERICENTER":224.8676,"MEAN_ANOMALY":135.1884,"EPHEMERIS_TYPE":0,"CLASSIFICATION_TYPE":"U","NORAD_CAT_ID":36492,"ELEMENT_SET_NO":999,"REV_AT_EPOCH":75365,"BSTAR":0.0072429,"MEAN_MOTION_DOT":0.00062934,"MEAN_MOTION_DDOT":0},{"OBJECT_NAME":"IRIDIUM 33 DEB","OBJECT_ID":"1997-051WK","EPOCH":"2023-09-13T01:32:47.656608","MEAN_MOTION":14.49329965,"ECCENTRICITY":0.001335,"INCLINATION":86.3675,"RA_OF_ASC_NODE":11.5866,"ARG_OF_PERICENTER":235.8801,"MEAN_ANOMALY":124.1137,"EPHEMERIS_TYPE":0,"CLASSIFICATION_TYPE":"U","NORAD_CAT_ID":36493,"ELEMENT_SET_NO":999,"REV_AT_EPOCH":62554,"BSTAR":0.0019946,"MEAN_MOTION_DOT":7.644e-5,"MEAN_MOTION_DDOT":0},{"OBJECT_NAME":"IRIDIUM 33 DEB","OBJECT_ID":"1997-051WP","EPOCH":"2023-09-11T19:30:27.177120","MEAN_MOTION":14.42674997,"ECCENTRICITY":0.0066434,"INCLINATION":86.1562,"RA_OF_ASC_NODE":271.56,"ARG_OF_PERICENTER":0.4567,"MEAN_ANOMALY":359.6681,"EPHEMERIS_TYPE":0,"CLASSIFICATION_TYPE":"U","NORAD_CAT_ID":36497,"ELEMENT_SET_NO":999,"REV_AT_EPOCH":53710,"BSTAR":0.0010987,"MEAN_MOTION_DOT":3.771e-5,"MEAN_MOTION_DDOT":0},{"OBJECT_NAME":"IRIDIUM 33 DEB","OBJECT_ID":"1997-051WV","EPOCH":"2023-09-14T11:56:41.214336","MEAN_MOTION":14.38095484,"ECCENTRICITY":0.0132144,"INCLINATION":86.428,"RA_OF_ASC_NODE":169.6281,"ARG_OF_PERICENTER":357.2954,"MEAN_ANOMALY":2.7513,"EPHEMERIS_TYPE":0,"CLASSIFICATION_TYPE":"U","NORAD_CAT_ID":36566,"ELEMENT_SET_NO":999,"REV_AT_EPOCH":72772,"BSTAR":0.010415,"MEAN_MOTION_DOT":0.00035076,"MEAN_MOTION_DDOT":0},{"OBJECT_NAME":"IRIDIUM 33 DEB","OBJECT_ID":"1997-051XG","EPOCH":"2023-09-13T12:15:26.922528","MEAN_MOTION":14.22686438,"ECCENTRICITY":0.008537,"INCLINATION":86.1791,"RA_OF_ASC_NODE":336.7046,"ARG_OF_PERICENTER":101.899,"MEAN_ANOMALY":259.1787,"EPHEMERIS_TYPE":0,"CLASSIFICATION_TYPE":"U","NORAD_CAT_ID":37136,"ELEMENT_SET_NO":999,"REV_AT_EPOCH":74117,"BSTAR":0.0010052,"MEAN_MOTION_DOT":2.354e-5,"MEAN_MOTION_DDOT":0},{"OBJECT_NAME":"IRIDIUM 33 DEB","OBJECT_ID":"1997-051XH","EPOCH":"2023-09-13T16:22:22.583712","MEAN_MOTION":14.39670877,"ECCENTRICITY":0.0029193,"INCLINATION":86.3572,"RA_OF_ASC_NODE":36.991,"ARG_OF_PERICENTER":43.7899,"MEAN_ANOMALY":316.5607,"EPHEMERIS_TYPE":0,"CLASSIFICATION_TYPE":"U","NORAD_CAT_ID":37548,"ELEMENT_SET_NO":999,"REV_AT_EPOCH":53671,"BSTAR":0.0017921,"MEAN_MOTION_DOT":5.652e-5,"MEAN_MOTION_DDOT":0},{"OBJECT_NAME":"IRIDIUM 33 DEB","OBJECT_ID":"1997-051XK","EPOCH":"2023-09-13T02:24:26.119584","MEAN_MOTION":14.50214607,"ECCENTRICITY":0.0003464,"INCLINATION":86.3866,"RA_OF_ASC_NODE":22.5205,"ARG_OF_PERICENTER":69.6616,"MEAN_ANOMALY":290.4961,"EPHEMERIS_TYPE":0,"CLASSIFICATION_TYPE":"U","NORAD_CAT_ID":37550,"ELEMENT_SET_NO":999,"REV_AT_EPOCH":74356,"BSTAR":0.0021365,"MEAN_MOTION_DOT":8.332e-5,"MEAN_MOTION_DDOT":0}]
